{"type": "FeatureCollection", "features": [ {"type": "Feature", "properties": {"norad_id": 43108, "name": "BEIDOU-3 M8 (C28)", "group": "beidou", "lat": 23.86307628401528, "lon": 110.06133243361711, "alt_km": 21533.077137086977, "timestamp": "2025-12-21T18:54:58.761934+00:00", "meta": {"OBJECT_NAME": "BEIDOU-3 M8 (C28)", "OBJECT_ID": "2018-003B", "EPOCH": "2025-12-21T00:39:03.607776", "MEAN_MOTION": 1.86231132, "ECCENTRICITY": 0.00046009, "INCLINATION": 54.4823, "RA_OF_ASC_NODE": 308.5094, "ARG_OF_PERICENTER": 278.1656, "MEAN_ANOMALY": 81.7767, "EPHEMERIS_TYPE": 0, "CLASSIFICATION_TYPE": "U", "NORAD_CAT_ID": 43108, "ELEMENT_SET_NO": 999, "REV_AT_EPOCH": 5404, "BSTAR": 0, "MEAN_MOTION_DOT": -6.6e-07, "MEAN_MOTION_DDOT": 0}, "tle": {"line1": "1 43108U 18003B   25355.02712509 -.00000066  00000+0  00000+0 0  9995", "line2": "2 43108  54.4823 308.5094 0004600 278.1656  81.7767  1.86231132 54044"}}, "geometry": {"type": "Point", "coordinates": [110.06133243361711, 23.86307628401528]}}, {"type": "Feature", "properties": {"norad_id": 43207, "name": "BEIDOU-3 M4 (C22)", "group": "beidou", "lat": -27.741418711864387, "lon": -90.61629692737344, "alt_km": 21541.693185800836, "timestamp": "2025-12-21T18:54:58.761945+00:00", "meta": {"OBJECT_NAME": "BEIDOU-3 M4 (C22)", "OBJECT_ID": "2018-018A", "EPOCH": "2025-12-20T09:29:07.105632", "MEAN_MOTION": 1.86231247, "ECCENTRICITY": 0.0004167, "INCLINATION": 56.4917, "RA_OF_ASC_NODE": 69.0512, "ARG_OF_PERICENTER": 3.4046, "MEAN_ANOMALY": 356.639, "EPHEMERIS_TYPE": 0, "CLASSIFICATION_TYPE": "U", "NORAD_CAT_ID": 43207, "ELEMENT_SET_NO": 999, "REV_AT_EPOCH": 5341, "BSTAR": 0, "MEAN_MOTION_DOT": -4.3e-07, "MEAN_MOTION_DDOT": 0}, "tle": {"line1": "1 43207U 18018A   25354.39522113 -.00000043  00000+0  00000+0 0  9995", "line2": "2 43207  56.4917  69.0512 0004167   3.4046 356.6390  1.86231247 53417"}}, "geometry": {"type": "Point", "coordinates": [-90.61629692737344, -27.741418711864387]}}, {"type": "Feature", "properties": {"norad_id": 43208, "name": "BEIDOU-3 M3 (C21)", "group": "beidou", "lat": 8.94401419321764, "lon": -116.94805639088734, "alt_km": 21543.086577902344, "timestamp": "2025-12-21T18:54:58.761956+00:00", "meta": {"OBJECT_NAME": "BEIDOU-3 M3 (C21)", "OBJECT_ID": "2018-018B", "EPOCH": "2025-12-21T12:51:19.783296", "MEAN_MOTION": 1.86231409, "ECCENTRICITY": 0.00070153, "INCLINATION": 56.4924, "RA_OF_ASC_NODE": 69.0175, "ARG_OF_PERICENTER": 313.8809, "MEAN_ANOMALY": 46.108, "EPHEMERIS_TYPE": 0, "CLASSIFICATION_TYPE": "U", "NORAD_CAT_ID": 43208, "ELEMENT_SET_NO": 999, "REV_AT_EPOCH": 5343, "BSTAR": 0, "MEAN_MOTION_DOT": -3.4e-07, "MEAN_MOTION_DDOT": 0}, "tle": {"line1": "1 43208U 18018B   25355.53564564 -.00000034  00000+0  00000+0 0  9999", "line2": "2 43208  56.4924  69.0175 0007015 313.8809  46.1080  1.86231409 53430"}}, "geometry": {"type": "Point", "coordinates": [-116.94805639088734, 8.94401419321764]}}, {"type": "Feature", "properties": {"norad_id": 43245, "name": "BEIDOU-3 M9 (C29)", "group": "beidou", "lat": 19.560165586810783, "lon": -39.116531897582426, "alt_km": 21526.234274498463, "timestamp": "2025-12-21T18:54:58.761967+00:00", "meta": {"OBJECT_NAME": "BEIDOU-3 M9 (C29)", "OBJECT_ID": "2018-029A", "EPOCH": "2025-12-21T05:09:30.864384", "MEAN_MOTION": 1.86228362, "ECCENTRICITY": 0.00015118, "INCLINATION": 54.3581, "RA_OF_ASC_NODE": 306.1726, "ARG_OF_PERICENTER": 290.8288, "MEAN_ANOMALY": 69.1519, "EPHEMERIS_TYPE": 0, "CLASSIFICATION_TYPE": "U", "NORAD_CAT_ID": 43245, "ELEMENT_SET_NO": 999, "REV_AT_EPOCH": 5258, "BSTAR": 0, "MEAN_MOTION_DOT": -6.2e-07, "MEAN_MOTION_DDOT": 0}, "tle": {"line1": "1 43245U 18029A   25355.21494056 -.00000062  00000+0  00000+0 0  9996", "line2": "2 43245  54.3581 306.1726 0001511 290.8288  69.1519  1.86228362 52585"}}, "geometry": {"type": "Point", "coordinates": [-39.116531897582426, 19.560165586810783]}}, {"type": "Feature", "properties": {"norad_id": 43246, "name": "BEIDOU-3 M10 (C30)", "group": "beidou", "lat": 48.817625996225196, "lon": 1.173309346388063, "alt_km": 21517.29374821409, "timestamp": "2025-12-21T18:54:58.761977+00:00", "meta": {"OBJECT_NAME": "BEIDOU-3 M10 (C30)", "OBJECT_ID": "2018-029B", "EPOCH": "2025-12-21T03:36:13.499136", "MEAN_MOTION": 1.86229222, "ECCENTRICITY": 0.00042718, "INCLINATION": 54.3551, "RA_OF_ASC_NODE": 306.2014, "ARG_OF_PERICENTER": 3.3786, "MEAN_ANOMALY": 356.6208, "EPHEMERIS_TYPE": 0, "CLASSIFICATION_TYPE": "U", "NORAD_CAT_ID": 43246, "ELEMENT_SET_NO": 999, "REV_AT_EPOCH": 5256, "BSTAR": 0, "MEAN_MOTION_DOT": -6.3e-07, "MEAN_MOTION_DDOT": 0}, "tle": {"line1": "1 43246U 18029B   25355.15015624 -.00000063  00000+0  00000+0 0  9991", "line2": "2 43246  54.3551 306.2014 0004271   3.3786 356.6208  1.86229222 52563"}}, "geometry": {"type": "Point", "coordinates": [1.173309346388063, 48.817625996225196]}}, {"type": "Feature", "properties": {"norad_id": 43539, "name": "BEIDOU-2 IGSO-7 (C16)", "group": "beidou", "lat": -30.946837858759142, "lon": 139.87061238672322, "alt_km": 35763.69359837081, "timestamp": "2025-12-21T18:54:58.761988+00:00", "meta": {"OBJECT_NAME": "BEIDOU-2 IGSO-7 (C16)", "OBJECT_ID": "2018-057A", "EPOCH": "2025-12-15T07:47:07.120608", "MEAN_MOTION": 1.00256546, "ECCENTRICITY": 0.00926218, "INCLINATION": 55.1766, "RA_OF_ASC_NODE": 164.6485, "ARG_OF_PERICENTER": 235.2644, "MEAN_ANOMALY": 271.8458, "EPHEMERIS_TYPE": 0, "CLASSIFICATION_TYPE": "U", "NORAD_CAT_ID": 43539, "ELEMENT_SET_NO": 999, "REV_AT_EPOCH": 2728, "BSTAR": 0, "MEAN_MOTION_DOT": -2.3e-07, "MEAN_MOTION_DDOT": 0}, "tle": {"line1": "1 43539U 18057A   25349.32438797 -.00000023  00000+0  00000+0 0  9995", "line2": "2 43539  55.1766 164.6485 0092621 235.2644 271.8458  1.00256546 27289"}}, "geometry": {"type": "Point", "coordinates": [139.87061238672322, -30.946837858759142]}}, {"type": "Feature", "properties": {"norad_id": 43581, "name": "BEIDOU-3 M5 (C23)", "group": "beidou", "lat": -53.44203072486176, "lon": 110.43100869095503, "alt_km": 21533.47760190617, "timestamp": "2025-12-21T18:54:58.762000+00:00", "meta": {"OBJECT_NAME": "BEIDOU-3 M5 (C23)", "OBJECT_ID": "2018-062A", "EPOCH": "2025-12-20T20:06:28.321920", "MEAN_MOTION": 1.86228978, "ECCENTRICITY": 0.00019384, "INCLINATION": 54.0899, "RA_OF_ASC_NODE": 188.3678, "ARG_OF_PERICENTER": 1.5281, "MEAN_ANOMALY": 358.5256, "EPHEMERIS_TYPE": 0, "CLASSIFICATION_TYPE": "U", "NORAD_CAT_ID": 43581, "ELEMENT_SET_NO": 999, "REV_AT_EPOCH": 5031, "BSTAR": 0, "MEAN_MOTION_DOT": 9.5e-07, "MEAN_MOTION_DDOT": 0}, "tle": {"line1": "1 43581U 18062A   25354.83782780  .00000095  00000+0  00000+0 0  9992", "line2": "2 43581  54.0899 188.3678 0001938   1.5281 358.5256  1.86228978 50311"}}, "geometry": {"type": "Point", "coordinates": [110.43100869095503, -53.44203072486176]}}, {"type": "Feature", "properties": {"norad_id": 43582, "name": "BEIDOU-3 M6 (C24)", "group": "beidou", "lat": 7.286359668863244, "lon": -166.35100843247642, "alt_km": 21510.438801326287, "timestamp": "2025-12-21T18:54:58.762011+00:00", "meta": {"OBJECT_NAME": "BEIDOU-3 M6 (C24)", "OBJECT_ID": "2018-062B", "EPOCH": "2025-12-20T16:49:14.112192", "MEAN_MOTION": 1.86229946, "ECCENTRICITY": 0.00078563, "INCLINATION": 54.0894, "RA_OF_ASC_NODE": 188.3615, "ARG_OF_PERICENTER": 48.1727, "MEAN_ANOMALY": 311.9483, "EPHEMERIS_TYPE": 0, "CLASSIFICATION_TYPE": "U", "NORAD_CAT_ID": 43582, "ELEMENT_SET_NO": 999, "REV_AT_EPOCH": 5031, "BSTAR": 0, "MEAN_MOTION_DOT": 9.6e-07, "MEAN_MOTION_DDOT": 0}, "tle": {"line1": "1 43582U 18062B   25354.70085778  .00000096  00000+0  00000+0 0  9993", "line2": "2 43582  54.0894 188.3615 0007856  48.1727 311.9483  1.86229946 50316"}}, "geometry": {"type": "Point", "coordinates": [-166.35100843247642, 7.286359668863244]}}, {"type": "Feature", "properties": {"norad_id": 43602, "name": "BEIDOU-3 M12 (C26)", "group": "beidou", "lat": 38.85627488934967, "lon": -137.3376592663997, "alt_km": 21498.133691481733, "timestamp": "2025-12-21T18:54:58.762023+00:00", "meta": {"OBJECT_NAME": "BEIDOU-3 M12 (C26)", "OBJECT_ID": "2018-067A", "EPOCH": "2025-12-19T13:33:24.239232", "MEAN_MOTION": 1.86227856, "ECCENTRICITY": 0.00092481, "INCLINATION": 54.1835, "RA_OF_ASC_NODE": 187.1314, "ARG_OF_PERICENTER": 41.3287, "MEAN_ANOMALY": 318.7989, "EPHEMERIS_TYPE": 0, "CLASSIFICATION_TYPE": "U", "NORAD_CAT_ID": 43602, "ELEMENT_SET_NO": 999, "REV_AT_EPOCH": 4977, "BSTAR": 0, "MEAN_MOTION_DOT": 1.01e-06, "MEAN_MOTION_DDOT": 0}, "tle": {"line1": "1 43602U 18067A   25353.56486388  .00000101  00000+0  00000+0 0  9993", "line2": "2 43602  54.1835 187.1314 0009248  41.3287 318.7989  1.86227856 49773"}}, "geometry": {"type": "Point", "coordinates": [-137.3376592663997, 38.85627488934967]}}, {"type": "Feature", "properties": {"norad_id": 43603, "name": "BEIDOU-3 M11 (C25)", "group": "beidou", "lat": -31.103253667700447, "lon": 161.17498294256475, "alt_km": 21528.780024557378, "timestamp": "2025-12-21T18:54:58.762033+00:00", "meta": {"OBJECT_NAME": "BEIDOU-3 M11 (C25)", "OBJECT_ID": "2018-067B", "EPOCH": "2025-12-20T18:33:33.170976", "MEAN_MOTION": 1.86227367, "ECCENTRICITY": 0.0005646, "INCLINATION": 54.1805, "RA_OF_ASC_NODE": 187.0544, "ARG_OF_PERICENTER": 37.4026, "MEAN_ANOMALY": 322.6873, "EPHEMERIS_TYPE": 0, "CLASSIFICATION_TYPE": "U", "NORAD_CAT_ID": 43603, "ELEMENT_SET_NO": 999, "REV_AT_EPOCH": 4982, "BSTAR": 0, "MEAN_MOTION_DOT": 9.5e-07, "MEAN_MOTION_DDOT": 0}, "tle": {"line1": "1 43603U 18067B   25354.77330059  .00000095  00000+0  00000+0 0  9993", "line2": "2 43603  54.1805 187.0544 0005646  37.4026 322.6873  1.86227367 49829"}}, "geometry": {"type": "Point", "coordinates": [161.17498294256475, -31.103253667700447]}}]}